     2              NAVIGATION DATA                         RINEX VERSION / TYPE
CCRINEXN V1.6.0 UX  CDDIS               05-AUG-13 00:33     PGM / RUN BY / DATE 
IGS BROADCAST EPHEMERIS FILE                                COMMENT             
    0.1025D-07  0.2235D-07 -0.5960D-07 -0.1192D-06          ION ALPHA           
    0.1004D+06  0.1311D+06 -0.6554D+05 -0.4588D+06          ION BETA            
   -0.186264514923D-08-0.266453525910D-14   233472     1752 DELTA-UTC: A0,A1,T,W
    16                                                      LEAP SECONDS        
                                                            END OF HEADER       
16 13  8  4  4  0  0.0-0.249211210757D-03 0.568434188608D-12 0.000000000000D+00
    0.670000000000D+02-0.565625000000D+02 0.408588447920D-08 0.204294397462D+01
   -0.289455056190D-05 0.709388859104D-02 0.265426933765D-05 0.515368580437D+04
    0.144000000000D+05-0.800937414169D-07 0.152324661770D+01 0.856816768646D-07
    0.985188626546D+00 0.343906250000D+03 0.135241605013D+00-0.809533720329D-08
   -0.231438211759D-09 0.100000000000D+01 0.175200000000D+04 0.000000000000D+00
    0.200000000000D+01 0.000000000000D+00-0.977888703346D-08 0.670000000000D+02
    0.721800000000D+04 0.400000000000D+01 0.000000000000D+00 0.000000000000D+00
17 13  8  4  4  0  0.0-0.770436599851D-05-0.386535248253D-11 0.000000000000D+00
    0.300000000000D+02-0.961875000000D+02 0.412660046090D-08 0.107224584424D+01
   -0.505708158016D-05 0.840618589427D-02 0.967644155025D-05 0.515367230797D+04
    0.144000000000D+05-0.122934579849D-06 0.255944329753D+01 0.521540641785D-07
    0.966317858149D+00 0.194500000000D+03-0.219114806810D+01-0.792390149087D-08
    0.157149403046D-10 0.000000000000D+00 0.175200000000D+04 0.000000000000D+00
    0.200000000000D+01 0.000000000000D+00-0.102445483208D-07 0.300000000000D+02
    0.720000000000D+04 0.400000000000D+01 0.000000000000D+00 0.000000000000D+00
18 13  8  4  4  0  0.0 0.266952440143D-03 0.193267624127D-11 0.000000000000D+00
    0.370000000000D+02-0.182812500000D+02 0.561916263211D-08 0.257368585248D+01
   -0.111572444439D-05 0.145901475335D-01 0.505149364471D-05 0.515361701202D+04
    0.144000000000D+05 0.000000000000D+00-0.167154997749D+01-0.217929482460D-06
    0.926525874893D+00 0.262312500000D+03-0.208761566889D+01-0.831498920982D-08
   -0.257867884090D-09 0.100000000000D+01 0.175200000000D+04 0.000000000000D+00
    0.200000000000D+01 0.000000000000D+00-0.107102096081D-07 0.370000000000D+02
    0.859800000000D+04 0.400000000000D+01 0.000000000000D+00 0.000000000000D+00
19 13  8  4  4  0  0.0-0.393923837692D-03-0.295585778076D-11 0.000000000000D+00
    0.540000000000D+02-0.860000000000D+02 0.420660379336D-08 0.284841718789D+00
   -0.440143048763D-05 0.950489228126D-02 0.101197510958D-04 0.515373308945D+04
    0.144000000000D+05 0.126659870148D-06 0.261117500665D+01 0.135973095894D-06
    0.963561392794D+00 0.186343750000D+03 0.354262079500D+00-0.793854495798D-08
    0.128219626576D-09 0.100000000000D+01 0.175200000000D+04 0.000000000000D+00
    0.200000000000D+01 0.000000000000D+00-0.144354999065D-07 0.540000000000D+02
    0.775200000000D+04 0.400000000000D+01 0.000000000000D+00 0.000000000000D+00
20 13  8  4  4  0  0.0 0.113481190056D-03 0.238742359215D-11 0.000000000000D+00
    0.430000000000D+02-0.105625000000D+02 0.574595362775D-08 0.306623394705D+01
   -0.562518835068D-06 0.540228874888D-02 0.506080687046D-05 0.515369198418D+04
    0.144000000000D+05 0.968575477600D-07-0.172494630744D+01-0.100582838059D-06
    0.927334836407D+00 0.261968750000D+03 0.128989644223D+01-0.849999691613D-08
   -0.161792453591D-09 0.000000000000D+00 0.175200000000D+04 0.000000000000D+00
    0.200000000000D+01 0.000000000000D+00-0.791624188423D-08 0.430000000000D+02
    0.720000000000D+04 0.400000000000D+01 0.000000000000D+00 0.000000000000D+00
22 13  8  4  4  0  0.0 0.178486574441D-03 0.170530256582D-11 0.000000000000D+00
    0.640000000000D+02-0.168437500000D+02 0.579702718374D-08 0.199017165530D+01
   -0.935047864914D-06 0.681395840365D-02 0.530853867531D-05 0.515364119530D+04
    0.144000000000D+05-0.745058059692D-07-0.166907771030D+01-0.150874257088D-06
    0.924277327381D+00 0.259625000000D+03-0.203488822604D+01-0.854428447517D-08
   -0.196436753808D-09 0.100000000000D+01 0.175200000000D+04 0.000000000000D+00
    0.280000000000D+01 0.000000000000D+00-0.172294676304D-07 0.640000000000D+02
    0.130980000000D+05 0.400000000000D+01 0.000000000000D+00 0.000000000000D+00
23 13  8  4  4  0  0.0 0.607669353485D-04-0.352429196937D-11 0.000000000000D+00
    0.106000000000D+03 0.354375000000D+02 0.451911681078D-08-0.174359924734D+00
    0.168196856976D-05 0.884378375486D-02 0.105258077383D-04 0.515368039513D+04
    0.144000000000D+05 0.726431608200D-07-0.610673189401D+00 0.521540641785D-07
    0.955122876084D+00 0.171687500000D+03-0.284875315142D+01-0.801140513575D-08
   -0.493234830925D-09 0.100000000000D+01 0.175200000000D+04 0.000000000000D+00
    0.280000000000D+01 0.000000000000D+00-0.200234353542D-07 0.106000000000D+03
    0.721800000000D+04 0.400000000000D+01 0.000000000000D+00 0.000000000000D+00
24 13  8  4  4  0  0.0-0.112070702016D-04-0.682121026330D-12 0.000000000000D+00
    0.770000000000D+02 0.100375000000D+03 0.440911222865D-08-0.965969878214D+00
    0.522285699844D-05 0.949889537878D-03 0.607408583164D-05 0.515367232132D+04
    0.144000000000D+05 0.502914190292D-07 0.415414147187D+00 0.745058059692D-08
    0.958883677126D+00 0.264750000000D+03 0.330422474737D+00-0.811748098281D-08
    0.760745973838D-10 0.100000000000D+01 0.175200000000D+04 0.000000000000D+00
    0.280000000000D+01 0.000000000000D+00 0.325962901115D-08 0.770000000000D+02
    0.721800000000D+04 0.400000000000D+01 0.000000000000D+00 0.000000000000D+00
25 13  8  4  4  0  0.0 0.131026841700D-03 0.488853402203D-11 0.000000000000D+00
    0.770000000000D+02-0.404375000000D+02 0.425374861427D-08-0.303721674313D+01
   -0.205449759960D-05 0.275588769000D-02 0.197812914848D-05 0.515374513054D+04
    0.144000000000D+05 0.372529029846D-08 0.146576343738D+01-0.558793544769D-08
    0.973325635125D+00 0.347156250000D+03 0.741296666324D+00-0.816784022333D-08
   -0.778603860548D-10 0.100000000000D+01 0.175200000000D+04 0.000000000000D+00
    0.200000000000D+01 0.000000000000D+00 0.558793544769D-08 0.770000000000D+02
    0.721800000000D+04 0.400000000000D+01 0.000000000000D+00 0.000000000000D+00
26 13  8  4  4  0  0.0 0.126505736262D-03 0.171667124960D-10 0.000000000000D+00
    0.790000000000D+02 0.327187500000D+02 0.414088677027D-08-0.179262688405D+00
    0.190921127796D-05 0.210521159461D-01 0.106710940599D-04 0.515369295692D+04
    0.144000000000D+05-0.188127160072D-06-0.528661030500D+00 0.221654772759D-06
    0.978403909467D+00 0.185843750000D+03 0.124807178551D+01-0.806390732268D-08
   -0.381087302387D-09 0.100000000000D+01 0.175200000000D+04 0.000000000000D+00
    0.200000000000D+01 0.000000000000D+00-0.558793544769D-08 0.790000000000D+02
    0.856800000000D+04 0.400000000000D+01 0.000000000000D+00 0.000000000000D+00
27 13  8  4  4  0  0.0-0.193864107132D-04-0.488853402203D-11 0.000000000000D+00
    0.550000000000D+02-0.912187500000D+02 0.418946022212D-08 0.286953827247D+00
   -0.480376183987D-05 0.350928166881D-03 0.997819006443D-05 0.515367153359D+04
    0.144000000000D+05-0.223517417908D-07 0.251581751070D+01 0.242143869400D-07
    0.960876883990D+00 0.187218750000D+03 0.888390388888D+00-0.786389899153D-08
    0.657170230921D-10 0.100000000000D+01 0.175200000000D+04 0.000000000000D+00
    0.200000000000D+01 0.000000000000D+00 0.186264514923D-08 0.550000000000D+02
    0.721800000000D+04 0.400000000000D+01 0.000000000000D+00 0.000000000000D+00
28 13  8  4  4  0  0.0 0.281267799437D-03 0.318323145621D-11 0.000000000000D+00
    0.720000000000D+02-0.532187500000D+02 0.402266756025D-08 0.185912245020D+01
   -0.310130417347D-05 0.186563946772D-01 0.186823308468D-05 0.515365056038D+04
    0.144000000000D+05 0.109896063805D-06 0.152940819458D+01-0.404193997383D-06
    0.983647903169D+00 0.355843750000D+03-0.176522108585D+01-0.802783439152D-08
   -0.114290474943D-09 0.000000000000D+00 0.175200000000D+04 0.000000000000D+00
    0.200000000000D+01 0.000000000000D+00-0.107102096081D-07 0.720000000000D+02
    0.720000000000D+04 0.400000000000D+01 0.000000000000D+00 0.000000000000D+00
29 13  8  4  4  0  0.0 0.459246337414D-03 0.318323145621D-11 0.000000000000D+00
    0.101000000000D+03-0.859062500000D+02 0.404052544696D-08-0.242040626421D+01
   -0.440329313278D-05 0.162598548923D-02 0.974908471108D-05 0.515361313057D+04
    0.144000000000D+05 0.186264514923D-07 0.256827903454D+01 0.353902578354D-07
    0.966979913429D+00 0.192750000000D+03-0.970287095758D+00-0.777389524251D-08
    0.953611150304D-10 0.100000000000D+01 0.175200000000D+04 0.000000000000D+00
    0.280000000000D+01 0.000000000000D+00-0.931322574616D-08 0.101000000000D+03
    0.721800000000D+04 0.400000000000D+01 0.000000000000D+00 0.000000000000D+00
30 13  8  4  4  0  0.0-0.168054364622D-03 0.102318153950D-11 0.000000000000D+00
    0.330000000000D+02-0.476562500000D+02 0.551915846653D-08 0.198450054072D+01
   -0.254437327385D-05 0.637731340248D-02 0.241026282310D-05 0.515369272804D+04
    0.144000000000D+05-0.111758708954D-06 0.148271130236D+01-0.100582838059D-06
    0.978137178540D+00 0.342937500000D+03 0.885691862404D+00-0.819605568433D-08
   -0.131076888450D-09 0.100000000000D+01 0.175200000000D+04 0.000000000000D+00
    0.200000000000D+01 0.630000000000D+02-0.190921127796D-07 0.330000000000D+02
    0.721800000000D+04 0.400000000000D+01 0.000000000000D+00 0.000000000000D+00
